{
  "norad_id": 48362,
  "name": "STARLINK-2578",
  "history": [
    {
      "epoch": "2026-03-28T18:43:33.542976Z",
      "apogee_km": 475.6863313602071,
      "perigee_km": 474.55883309373985,
      "latitude_deg": 2.6063514252198118e-05,
      "longitude_deg": 162.38537229743574,
      "height_km": 475.9769554329608,
      "semi_major_axis_km": 6853.259582226973,
      "eccentricity": 8.226e-05,
      "inclination_deg": 53.1585,
      "raan_deg": 269.4709,
      "arg_perigee_deg": 85.508,
      "mean_anomaly_deg": 274.6015,
      "mean_motion_rev_day": 15.30230976
    },
    {
      "epoch": "2026-03-30T02:04:38.718336Z",
      "apogee_km": 476.0741512097575,
      "perigee_km": 474.6184713544417,
      "latitude_deg": 5.036731123438953e-05,
      "longitude_deg": 44.75636913782711,
      "height_km": 476.1524951604395,
      "semi_major_axis_km": 6853.483311282099,
      "eccentricity": 0.0001062,
      "inclination_deg": 53.1582,
      "raan_deg": 263.401,
      "arg_perigee_deg": 82.7408,
      "mean_anomaly_deg": 277.3714,
      "mean_motion_rev_day": 15.30156046
    },
    {
      "epoch": "2026-03-30T05:12:45.257472Z",
      "apogee_km": 476.13551432761597,
      "perigee_km": 474.50041704190335,
      "latitude_deg": 7.407526508232554e-06,
      "longitude_deg": -3.0058651456110623,
      "height_km": 476.1495538410663,
      "semi_major_axis_km": 6853.454965684759,
      "eccentricity": 0.00011929,
      "inclination_deg": 53.1581,
      "raan_deg": 262.7948,
      "arg_perigee_deg": 85.3428,
      "mean_anomaly_deg": 274.7709,
      "mean_motion_rev_day": 15.30165539
    },
    {
      "epoch": "2026-03-30T11:28:58.420416Z",
      "apogee_km": 476.12856262525565,
      "perigee_km": 474.5074463784913,
      "latitude_deg": 4.082583456215273e-05,
      "longitude_deg": -98.53139856061425,
      "height_km": 476.0558753120636,
      "semi_major_axis_km": 6853.455004501873,
      "eccentricity": 0.00011827,
      "inclination_deg": 53.1579,
      "raan_deg": 261.5816,
      "arg_perigee_deg": 78.6072,
      "mean_anomaly_deg": 281.5062,
      "mean_motion_rev_day": 15.30165526
    },
    {
      "epoch": "2026-03-30T17:45:11.676672Z",
      "apogee_km": 476.0892473146414,
      "perigee_km": 474.50815969784344,
      "latitude_deg": -2.86288377457422e-05,
      "longitude_deg": 165.94340150947986,
      "height_km": 475.97212020936445,
      "semi_major_axis_km": 6853.435703506242,
      "eccentricity": 0.00011535,
      "inclination_deg": 53.1581,
      "raan_deg": 260.3692,
      "arg_perigee_deg": 73.4888,
      "mean_anomaly_deg": 286.6239,
      "mean_motion_rev_day": 15.3017199
    },
    {
      "epoch": "2026-03-31T17:16:00.274368Z",
      "apogee_km": 475.9601616877808,
      "perigee_km": 474.4688723976724,
      "latitude_deg": 6.737721092046857e-06,
      "longitude_deg": 167.72407366624168,
      "height_km": 475.91610246674406,
      "semi_major_axis_km": 6853.351517042726,
      "eccentricity": 0.0001088,
      "inclination_deg": 53.159,
      "raan_deg": 255.818,
      "arg_perigee_deg": 74.7057,
      "mean_anomaly_deg": 285.4064,
      "mean_motion_rev_day": 15.30200185
    },
    {
      "epoch": "2026-04-01T16:46:46.686144Z",
      "apogee_km": 475.87345789296614,
      "perigee_km": 474.35751844258357,
      "latitude_deg": -5.201421807105792e-05,
      "longitude_deg": 169.51320857916937,
      "height_km": 475.7879771573442,
      "semi_major_axis_km": 6853.252488167775,
      "eccentricity": 0.0001106,
      "inclination_deg": 53.1588,
      "raan_deg": 251.2662,
      "arg_perigee_deg": 72.6706,
      "mean_anomaly_deg": 287.4415,
      "mean_motion_rev_day": 15.30233352
    },
    {
      "epoch": "2026-04-02T19:25:41.289888Z",
      "apogee_km": 477.37741762117366,
      "perigee_km": 473.0598035864932,
      "latitude_deg": 4.973480536375949e-06,
      "longitude_deg": 123.53322132614323,
      "height_km": 475.9069679655017,
      "semi_major_axis_km": 6853.355610603833,
      "eccentricity": 0.000315,
      "inclination_deg": 53.1579,
      "raan_deg": 246.1081,
      "arg_perigee_deg": 84.5057,
      "mean_anomaly_deg": 275.6303,
      "mean_motion_rev_day": 15.30198814
    },
    {
      "epoch": "2026-04-02T19:25:41.290752Z",
      "apogee_km": 477.37714348694954,
      "perigee_km": 473.06007772071825,
      "latitude_deg": 8.657915227466939e-06,
      "longitude_deg": 123.5332204615418,
      "height_km": 475.9069942105981,
      "semi_major_axis_km": 6853.355610603833,
      "eccentricity": 0.00031496,
      "inclination_deg": 53.1579,
      "raan_deg": 246.1081,
      "arg_perigee_deg": 84.5057,
      "mean_anomaly_deg": 275.6303,
      "mean_motion_rev_day": 15.30198814
    },
    {
      "epoch": "2026-04-03T18:56:28.104288Z",
      "apogee_km": 475.4364411714105,
      "perigee_km": 474.97315526585044,
      "latitude_deg": 1.63048997772476e-05,
      "longitude_deg": 125.3224250806185,
      "height_km": 476.0375168016104,
      "semi_major_axis_km": 6853.34179821863,
      "eccentricity": 3.38e-05,
      "inclination_deg": 53.1594,
      "raan_deg": 241.558,
      "arg_perigee_deg": 73.3095,
      "mean_anomaly_deg": 286.7943,
      "mean_motion_rev_day": 15.3020344
    },
    {
      "epoch": "2026-04-03T18:56:28.105152Z",
      "apogee_km": 475.4361670377384,
      "perigee_km": 474.9734293995225,
      "latitude_deg": 1.9838809613621697e-05,
      "longitude_deg": 125.32242410372939,
      "height_km": 476.03759553205913,
      "semi_major_axis_km": 6853.34179821863,
      "eccentricity": 3.376e-05,
      "inclination_deg": 53.1594,
      "raan_deg": 241.558,
      "arg_perigee_deg": 73.3095,
      "mean_anomaly_deg": 286.7943,
      "mean_motion_rev_day": 15.3020344
    }
  ]
}